SXODC_L_00008069-41
1 23109U 25803RY  26070.40865741  .00000000  00000+0  00000-0 0  9992
2 23109  30.0000  72.6409 0000000   0.0000 326.4570 13.69880518    15
SXODC_L_00008069-42
1 23110U 22392OD  26070.40865741  .00000000  00000+0  00000-0 0  9994
2 23110  30.0000  72.6409 0000000   0.0000 334.4570 13.69880518    16
SXODC_L_00008069-43
1 23111U 24477HQ  26070.40865741  .00000000  00000+0  00000-0 0  9991
2 23111  30.0000  72.6409 0000000   0.0000 342.4570 13.69880518    16
SXODC_L_00008069-44
1 23112U 26438WV  26070.40865741  .00000000  00000+0  00000-0 0  9991
2 23112  30.0000  72.6409 0000000   0.0000 350.4570 13.69880518    16
SXODC_L_00008069-45
1 23113U 24488FV  26070.40865741  .00000000  00000+0  00000-0 0  9995
2 23113  30.0000  72.6409 0000000   0.0000 358.4570 13.69880518    15
SXODC_L_00008070-01
1 23114U 25731IL  26070.40865741  .00000000  00000+0  00000-0 0  9998
2 23114  30.0000  73.7092 0000000   0.0000   6.5519 13.69880518    10
SXODC_L_00008070-02
1 23115U 26199LA  26070.40865741  .00000000  00000+0  00000-0 0  9998
2 23115  30.0000  73.7092 0000000   0.0000  14.5519 13.69880518    10
SXODC_L_00008070-03
1 23116U 22641IF  26070.40865741  .00000000  00000+0  00000-0 0  9997
2 23116  30.0000  73.7092 0000000   0.0000  22.5519 13.69880518    10
SXODC_L_00008070-04
1 23117U 24645PQ  26070.40865741  .00000000  00000+0  00000-0 0  9994
2 23117  30.0000  73.7092 0000000   0.0000  30.5519 13.69880518    10
SXODC_L_00008070-05
1 23118U 26714LK  26070.40865741  .00000000  00000+0  00000-0 0  9994
2 23118  30.0000  73.7092 0000000   0.0000  38.5519 13.69880518    19
SXODC_L_00008070-06
1 23119U 23544UC  26070.40865741  .00000000  00000+0  00000-0 0  9993
2 23119  30.0000  73.7092 0000000   0.0000  46.5519 13.69880518    19
SXODC_L_00008070-07
1 23120U 26222VN  26070.40865741  .00000000  00000+0  00000-0 0  9991
2 23120  30.0000  73.7092 0000000   0.0000  54.5519 13.69880518    10
SXODC_L_00008070-08
1 23121U 22851V   26070.40865741  .00000000  00000+0  00000-0 0  9996
2 23121  30.0000  73.7092 0000000   0.0000  62.5519 13.69880518    10
SXODC_L_00008070-09
1 23122U 22255RQ  26070.40865741  .00000000  00000+0  00000-0 0  9995
2 23122  30.0000  73.7092 0000000   0.0000  70.5519 13.69880518    10
SXODC_L_00008070-10
1 23123U 24128YS  26070.40865741  .00000000  00000+0  00000-0 0  9997
2 23123  30.0000  73.7092 0000000   0.0000  78.5519 13.69880518    19
SXODC_L_00008070-11
1 23124U 24983FG  26070.40865741  .00000000  00000+0  00000-0 0  9997
2 23124  30.0000  73.7092 0000000   0.0000  86.5519 13.69880518    19
SXODC_L_00008070-12
1 23125U 23861OJ  26070.40865741  .00000000  00000+0  00000-0 0  9992
2 23125  30.0000  73.7092 0000000   0.0000  94.5519 13.69880518    19
SXODC_L_00008070-13
1 23126U 25846EL  26070.40865741  .00000000  00000+0  00000-0 0  9998
2 23126  30.0000  73.7092 0000000   0.0000 102.5519 13.69880518    10
SXODC_L_00008070-14
1 23127U 26395ZQ  26070.40865741  .00000000  00000+0  00000-0 0  9999
2 23127  30.0000  73.7092 0000000   0.0000 110.5519 13.69880518    10
SXODC_L_00008070-15
1 23128U 24232RN  26070.40865741  .00000000  00000+0  00000-0 0  9998
2 23128  30.0000  73.7092 0000000   0.0000 118.5519 13.69880518    19
SXODC_L_00008070-16
1 23129U 23320JB  26070.40865741  .00000000  00000+0  00000-0 0  9996
2 23129  30.0000  73.7092 0000000   0.0000 126.5519 13.69880518    19
SXODC_L_00008070-17
1 23130U 23112MX  26070.40865741  .00000000  00000+0  00000-0 0  9997
2 23130  30.0000  73.7092 0000000   0.0000 134.5519 13.69880518    10
SXODC_L_00008070-18
1 23131U 26249VL  26070.40865741  .00000000  00000+0  00000-0 0  9992
2 23131  30.0000  73.7092 0000000   0.0000 142.5519 13.69880518    10
SXODC_L_00008070-19
1 23132U 22031MM  26070.40865741  .00000000  00000+0  00000-0 0  9998
2 23132  30.0000  73.7092 0000000   0.0000 150.5519 13.69880518    10
SXODC_L_00008070-20
1 23133U 23990PQ  26070.40865741  .00000000  00000+0  00000-0 0  9994
2 23133  30.0000  73.7092 0000000   0.0000 158.5519 13.69880518    19
SXODC_L_00008070-21
1 23134U 24212JQ  26070.40865741  .00000000  00000+0  00000-0 0  9993
2 23134  30.0000  73.7092 0000000   0.0000 166.5519 13.69880518    19
SXODC_L_00008070-22
1 23135U 23867EV  26070.40865741  .00000000  00000+0  00000-0 0  9999
2 23135  30.0000  73.7092 0000000   0.0000 174.5519 13.69880518    19
SXODC_L_00008070-23
1 23136U 23526PQ  26070.40865741  .00000000  00000+0  00000-0 0  9992
2 23136  30.0000  73.7092 0000000   0.0000 182.5519 13.69880518    19
SXODC_L_00008070-24
1 23137U 23691WR  26070.40865741  .00000000  00000+0  00000-0 0  9996
2 23137  30.0000  73.7092 0000000   0.0000 190.5519 13.69880518    19
SXODC_L_00008070-25
1 23138U 25884JZ  26070.40865741  .00000000  00000+0  00000-0 0  9993
2 23138  30.0000  73.7092 0000000   0.0000 198.5519 13.69880518    18
SXODC_L_00008070-26
1 23139U 25514NK  26070.40865741  .00000000  00000+0  00000-0 0  9994
2 23139  30.0000  73.7092 0000000   0.0000 206.5519 13.69880518    19
SXODC_L_00008070-27
1 23140U 22654ZX  26070.40865741  .00000000  00000+0  00000-0 0  9998
2 23140  30.0000  73.7092 0000000   0.0000 214.5519 13.69880518    10
SXODC_L_00008070-28
1 23141U 24373TX  26070.40865741  .00000000  00000+0  00000-0 0  9999
2 23141  30.0000  73.7092 0000000   0.0000 222.5519 13.69880518    10
SXODC_L_00008070-29
1 23142U 22376GY  26070.40865741  .00000000  00000+0  00000-0 0  9991
2 23142  30.0000  73.7092 0000000   0.0000 230.5519 13.69880518    10
SXODC_L_00008070-30
1 23143U 24351OX  26070.40865741  .00000000  00000+0  00000-0 0  9997
2 23143  30.0000  73.7092 0000000   0.0000 238.5519 13.69880518    19
SXODC_L_00008070-31
1 23144U 25404QV  26070.40865741  .00000000  00000+0  00000-0 0  9998
2 23144  30.0000  73.7092 0000000   0.0000 246.5519 13.69880518    19
SXODC_L_00008070-32
1 23145U 26701EM  26070.40865741  .00000000  00000+0  00000-0 0  9990
2 23145  30.0000  73.7092 0000000   0.0000 254.5519 13.69880518    19
SXODC_L_00008070-33
1 23146U 22812JR  26070.40865741  .00000000  00000+0  00000-0 0  9990
2 23146  30.0000  73.7092 0000000   0.0000 262.5519 13.69880518    19
SXODC_L_00008070-34
1 23147U 24033BW  26070.40865741  .00000000  00000+0  00000-0 0  9998
2 23147  30.0000  73.7092 0000000   0.0000 270.5519 13.69880518    19
SXODC_L_00008070-35
1 23148U 25900KI  26070.40865741  .00000000  00000+0  00000-0 0  9993
2 23148  30.0000  73.7092 0000000   0.0000 278.5519 13.69880518    18
SXODC_L_00008070-36
1 23149U 23922CV  26070.40865741  .00000000  00000+0  00000-0 0  9996
2 23149  30.0000  73.7092 0000000   0.0000 286.5519 13.69880518    18
SXODC_L_00008070-37
1 23150U 25696B   26070.40865741  .00000000  00000+0  00000-0 0  9998
2 23150  30.0000  73.7092 0000000   0.0000 294.5519 13.69880518    19
SXODC_L_00008070-38
1 23151U 23025CW  26070.40865741  .00000000  00000+0  00000-0 0  9993
2 23151  30.0000  73.7092 0000000   0.0000 302.5519 13.69880518    10
SXODC_L_00008070-39
1 23152U 26678TY  26070.40865741  .00000000  00000+0  00000-0 0  9991
2 23152  30.0000  73.7092 0000000   0.0000 310.5519 13.69880518    10
SXODC_L_00008070-40
1 23153U 26987WQ  26070.40865741  .00000000  00000+0  00000-0 0  9995
2 23153  30.0000  73.7092 0000000   0.0000 318.5519 13.69880518    19
SXODC_L_00008070-41
1 23154U 24277CS  26070.40865741  .00000000  00000+0  00000-0 0  9996
2 23154  30.0000  73.7092 0000000   0.0000 326.5519 13.69880518    19
SXODC_L_00008070-42
1 23155U 26953MW  26070.40865741  .00000000  00000+0  00000-0 0  9990
2 23155  30.0000  73.7092 0000000   0.0000 334.5519 13.69880518    19
SXODC_L_00008070-43
1 23156U 25102HX  26070.40865741  .00000000  00000+0  00000-0 0  9996
2 23156  30.0000  73.7092 0000000   0.0000 342.5519 13.69880518    19
SXODC_L_00008070-44
1 23157U 25624GS  26070.40865741  .00000000  00000+0  00000-0 0  9996
2 23157  30.0000  73.7092 0000000   0.0000 350.5519 13.69880518    19
SXODC_L_00008070-45
1 23158U 22010ML  26070.40865741  .00000000  00000+0  00000-0 0  9993
2 23158  30.0000  73.7092 0000000   0.0000 358.5519 13.69880518    18
SXODC_L_00008071-01
1 23159U 26713EN  26070.40865741  .00000000  00000+0  00000-0 0  9998
2 23159  30.0000  74.7774 0000000   0.0000   6.6469 13.69880518    12
SXODC_L_00008071-02
1 23160U 23100SL  26070.40865741  .00000000  00000+0  00000-0 0  9997
2 23160  30.0000  74.7774 0000000   0.0000  14.6469 13.69880518    13
SXODC_L_00008071-03
1 23161U 23040WX  26070.40865741  .00000000  00000+0  00000-0 0  9991
2 23161  30.0000  74.7774 0000000   0.0000  22.6469 13.69880518    13
SXODC_L_00008071-04
1 23162U 22676FQ  26070.40865741  .00000000  00000+0  00000-0 0  9996
2 23162  30.0000  74.7774 0000000   0.0000  30.6469 13.69880518    13
SXODC_L_00008071-05
1 23163U 22591PO  26070.40865741  .00000000  00000+0  00000-0 0  9993
2 23163  30.0000  74.7774 0000000   0.0000  38.6469 13.69880518    12
SXODC_L_00008071-06
1 23164U 26699KY  26070.40865741  .00000000  00000+0  00000-0 0  9997
2 23164  30.0000  74.7774 0000000   0.0000  46.6469 13.69880518    12
SXODC_L_00008071-07
1 23165U 26227TM  26070.40865741  .00000000  00000+0  00000-0 0  9995
2 23165  30.0000  74.7774 0000000   0.0000  54.6469 13.69880518    12
SXODC_L_00008071-08
1 23166U 25258DH  26070.40865741  .00000000  00000+0  00000-0 0  9999
2 23166  30.0000  74.7774 0000000   0.0000  62.6469 13.69880518    12
SXODC_L_00008071-09
1 23167U 25303DV  26070.40865741  .00000000  00000+0  00000-0 0  9991
2 23167  30.0000  74.7774 0000000   0.0000  70.6469 13.69880518    12
SXODC_L_00008071-10
1 23168U 22853DD  26070.40865741  .00000000  00000+0  00000-0 0  9999
2 23168  30.0000  74.7774 0000000   0.0000  78.6469 13.69880518    11
SXODC_L_00008071-11
1 23169U 24816NG  26070.40865741  .00000000  00000+0  00000-0 0  9991
2 23169  30.0000  74.7774 0000000   0.0000  86.6469 13.69880518    11
SXODC_L_00008071-12
1 23170U 23196SG  26070.40865741  .00000000  00000+0  00000-0 0  9993
2 23170  30.0000  74.7774 0000000   0.0000  94.6469 13.69880518    12
